{
  "type": "FeatureCollection",
  "features": [
    {
      "type": "Feature",
      "properties": {
        "norad_id": 42917,
        "name": "QZS-3 (QZSS/PRN 199)",
        "group": "gnss",
        "lat": 0.001310337016227686,
        "lon": -39.89851300069065,
        "alt_km": 35781.88684969651,
        "timestamp": "2025-12-19T06:59:44.151215+00:00",
        "meta_object_name": "QZS-3 (QZSS/PRN 199)",
        "meta_object_id": "2017-048A",
        "meta_epoch": "2025-12-18T22:27:31.961376",
        "meta_mean_motion": 1.0026672,
        "meta_eccentricity": 0.00018074,
        "meta_inclination": 0.0246,
        "meta_ra_of_asc_node": 182.0795,
        "meta_arg_of_pericenter": 95.9226,
        "meta_mean_anomaly": 273.7016,
        "meta_ephemeris_type": 0,
        "meta_classification_type": "U",
        "meta_norad_cat_id": 42917,
        "meta_element_set_no": 999,
        "meta_rev_at_epoch": 3045,
        "meta_bstar": 0,
        "meta_mean_motion_dot": 0,
        "meta_mean_motion_ddot": 0,
        "tle_line1": "1 42917U 17048A   25352.93578659  .00000000  00000+0  00000+0 0  9990",
        "tle_line2": "2 42917   0.0246 182.0795 0001807  95.9226 273.7016  1.00266720 30450"
      },
      "geometry": {
        "type": "Point",
        "coordinates": [
          -39.89851300069065,
          0.001310337016227686
        ]
      }
    },
    {
      "type": "Feature",
      "properties": {
        "norad_id": 42939,
        "name": "COSMOS 2522 (752)",
        "group": "gnss",
        "lat": -62.5663731605554,
        "lon": 128.3882016475304,
        "alt_km": 19127.048120746957,
        "timestamp": "2025-12-19T06:59:44.151233+00:00",
        "meta_object_name": "COSMOS 2522 (752)",
        "meta_object_id": "2017-055A",
        "meta_epoch": "2025-12-17T23:44:12.763104",
        "meta_mean_motion": 2.13102073,
        "meta_eccentricity": 0.00063915,
        "meta_inclination": 64.076,
        "meta_ra_of_asc_node": 198.0502,
        "meta_arg_of_pericenter": 224.057,
        "meta_mean_anomaly": 135.9735,
        "meta_ephemeris_type": 0,
        "meta_classification_type": "U",
        "meta_norad_cat_id": 42939,
        "meta_element_set_no": 999,
        "meta_rev_at_epoch": 6411,
        "meta_bstar": 0,
        "meta_mean_motion_dot": 1.1e-06,
        "meta_mean_motion_ddot": 0,
        "tle_line1": "1 42939U 17055A   25351.98903661  .00000110  00000+0  00000+0 0  9993",
        "tle_line2": "2 42939  64.0760 198.0502 0006391 224.0570 135.9735  2.13102073 64110"
      },
      "geometry": {
        "type": "Point",
        "coordinates": [
          128.3882016475304,
          -62.5663731605554
        ]
      }
    },
    {
      "type": "Feature",
      "properties": {
        "norad_id": 42965,
        "name": "QZS-4 (QZSS/PRN 195)",
        "group": "gnss",
        "lat": -5.424264001838536,
        "lon": -20.679209191373797,
        "alt_km": 35000.678519549,
        "timestamp": "2025-12-19T06:59:44.151251+00:00",
        "meta_object_name": "QZS-4 (QZSS/PRN 195)",
        "meta_object_id": "2017-062A",
        "meta_epoch": "2025-12-18T12:29:45.417120",
        "meta_mean_motion": 1.00251537,
        "meta_eccentricity": 0.07515287,
        "meta_inclination": 40.2229,
        "meta_ra_of_asc_node": 345.7974,
        "meta_arg_of_pericenter": 271.6693,
        "meta_mean_anomaly": 153.2789,
        "meta_ephemeris_type": 0,
        "meta_classification_type": "U",
        "meta_norad_cat_id": 42965,
        "meta_element_set_no": 999,
        "meta_rev_at_epoch": 2999,
        "meta_bstar": 0,
        "meta_mean_motion_dot": -3.37e-06,
        "meta_mean_motion_ddot": 0,
        "tle_line1": "1 42965U 17062A   25352.52066455 -.00000337  00000+0  00000+0 0  9994",
        "tle_line2": "2 42965  40.2229 345.7974 0751528 271.6693 153.2789  1.00251537 29996"
      },
      "geometry": {
        "type": "Point",
        "coordinates": [
          -20.679209191373797,
          -5.424264001838536
        ]
      }
    },
    {
      "type": "Feature",
      "properties": {
        "norad_id": 43001,
        "name": "BEIDOU-3 M1 (C19)",
        "group": "gnss",
        "lat": 21.281173450329046,
        "lon": 83.93972144748717,
        "alt_km": 21522.42371917141,
        "timestamp": "2025-12-19T06:59:44.151269+00:00",
        "meta_object_name": "BEIDOU-3 M1 (C19)",
        "meta_object_id": "2017-069A",
        "meta_epoch": "2025-12-18T04:17:57.582816",
        "meta_mean_motion": 1.86231385,
        "meta_eccentricity": 0.00094787,
        "meta_inclination": 56.5315,
        "meta_ra_of_asc_node": 69.054,
        "meta_arg_of_pericenter": 302.4467,
        "meta_mean_anomaly": 57.4905,
        "meta_ephemeris_type": 0,
        "meta_classification_type": "U",
        "meta_norad_cat_id": 43001,
        "meta_element_set_no": 999,
        "meta_rev_at_epoch": 5523,
        "meta_bstar": 0,
        "meta_mean_motion_dot": -6.5e-07,
        "meta_mean_motion_ddot": 0,
        "tle_line1": "1 43001U 17069A   25352.17913869 -.00000065  00000+0  00000+0 0  9992",
        "tle_line2": "2 43001  56.5315  69.0540 0009478 302.4467  57.4905  1.86231385 55235"
      },
      "geometry": {
        "type": "Point",
        "coordinates": [
          83.93972144748717,
          21.281173450329046
        ]
      }
    },
    {
      "type": "Feature",
      "properties": {
        "norad_id": 43002,
        "name": "BEIDOU-3 M2 (C20)",
        "group": "gnss",
        "lat": 50.251192792495765,
        "lon": 121.64382477828623,
        "alt_km": 21524.08410192196,
        "timestamp": "2025-12-19T06:59:44.151286+00:00",
        "meta_object_name": "BEIDOU-3 M2 (C20)",
        "meta_object_id": "2017-069B",
        "meta_epoch": "2025-12-18T15:42:26.273664",
        "meta_mean_motion": 1.86230996,
        "meta_eccentricity": 0.00064765,
        "meta_inclination": 56.5319,
        "meta_ra_of_asc_node": 69.0743,
        "meta_arg_of_pericenter": 330.8658,
        "meta_mean_anomaly": 29.1292,
        "meta_ephemeris_type": 0,
        "meta_classification_type": "U",
        "meta_norad_cat_id": 43002,
        "meta_element_set_no": 999,
        "meta_rev_at_epoch": 5523,
        "meta_bstar": 0,
        "meta_mean_motion_dot": -6.1e-07,
        "meta_mean_motion_ddot": 0,
        "tle_line1": "1 43002U 17069B   25352.65447076 -.00000061  00000+0  00000+0 0  9994",
        "tle_line2": "2 43002  56.5319  69.0743 0006476 330.8658  29.1292  1.86230996 55239"
      },
      "geometry": {
        "type": "Point",
        "coordinates": [
          121.64382477828623,
          50.251192792495765
        ]
      }
    },
    {
      "type": "Feature",
      "properties": {
        "norad_id": 43055,
        "name": "GSAT0215 (GALILEO 19)",
        "group": "gnss",
        "lat": -30.873509286464014,
        "lon": 71.0922072070337,
        "alt_km": 23228.29671304118,
        "timestamp": "2025-12-19T06:59:44.151308+00:00",
        "meta_object_name": "GSAT0215 (GALILEO 19)",
        "meta_object_id": "2017-079A",
        "meta_epoch": "2025-12-18T08:21:56.206080",
        "meta_mean_motion": 1.70474068,
        "meta_eccentricity": 0.00012335,
        "meta_inclination": 55.1282,
        "meta_ra_of_asc_node": 226.4832,
        "meta_arg_of_pericenter": 345.8587,
        "meta_mean_anomaly": 14.2435,
        "meta_ephemeris_type": 0,
        "meta_classification_type": "U",
        "meta_norad_cat_id": 43055,
        "meta_element_set_no": 999,
        "meta_rev_at_epoch": 4990,
        "meta_bstar": 0,
        "meta_mean_motion_dot": 6.2e-07,
        "meta_mean_motion_ddot": 0,
        "tle_line1": "1 43055U 17079A   25352.34856720  .00000062  00000+0  00000+0 0  9999",
        "tle_line2": "2 43055  55.1282 226.4832 0001233 345.8587  14.2435  1.70474068 49906"
      },
      "geometry": {
        "type": "Point",
        "coordinates": [
          71.0922072070337,
          -30.873509286464014
        ]
      }
    },
    {
      "type": "Feature",
      "properties": {
        "norad_id": 43056,
        "name": "GSAT0216 (GALILEO 20)",
        "group": "gnss",
        "lat": 31.782534219719388,
        "lon": -107.94951475906359,
        "alt_km": 23216.737473612182,
        "timestamp": "2025-12-19T06:59:44.151326+00:00",
        "meta_object_name": "GSAT0216 (GALILEO 20)",
        "meta_object_id": "2017-079B",
        "meta_epoch": "2025-12-16T21:07:19.515072",
        "meta_mean_motion": 1.70474167,
        "meta_eccentricity": 0.00024195,
        "meta_inclination": 55.129,
        "meta_ra_of_asc_node": 226.5236,
        "meta_arg_of_pericenter": 322.2527,
        "meta_mean_anomaly": 37.829,
        "meta_ephemeris_type": 0,
        "meta_classification_type": "U",
        "meta_norad_cat_id": 43056,
        "meta_element_set_no": 999,
        "meta_rev_at_epoch": 4989,
        "meta_bstar": 0,
        "meta_mean_motion_dot": 5.3e-07,
        "meta_mean_motion_ddot": 0,
        "tle_line1": "1 43056U 17079B   25350.88008698  .00000053  00000+0  00000+0 0  9990",
        "tle_line2": "2 43056  55.1290 226.5236 0002419 322.2527  37.8290  1.70474167 49893"
      },
      "geometry": {
        "type": "Point",
        "coordinates": [
          -107.94951475906359,
          31.782534219719388
        ]
      }
    }
  ]
}